{
  "type": "FeatureCollection",
  "features": [
    {
      "type": "Feature",
      "properties": {
        "norad_id": 41026,
        "name": "YAOGAN-28",
        "group": "resource",
        "lat": 41.200604038942046,
        "lon": -43.56656998461584,
        "alt_km": 481.7891431757125,
        "timestamp": "2025-12-18T08:58:43.048900+00:00",
        "meta_object_name": "YAOGAN-28",
        "meta_object_id": "2015-064A",
        "meta_epoch": "2025-12-17T22:55:21.698400",
        "meta_mean_motion": 15.24438051,
        "meta_eccentricity": 0.00125684,
        "meta_inclination": 97.2805,
        "meta_ra_of_asc_node": 129.6001,
        "meta_arg_of_pericenter": 109.3769,
        "meta_mean_anomaly": 250.8828,
        "meta_ephemeris_type": 0,
        "meta_classification_type": "U",
        "meta_norad_cat_id": 41026,
        "meta_element_set_no": 999,
        "meta_rev_at_epoch": 56304,
        "meta_bstar": 0.00026424454,
        "meta_mean_motion_dot": 6.429e-05,
        "meta_mean_motion_ddot": 0,
        "tle_line1": "1 41026U 15064A   25351.95511225  .00006429  00000+0  26424-3 0  9996",
        "tle_line2": "2 41026  97.2805 129.6001 0012568 109.3769 250.8828 15.24438051563046"
      },
      "geometry": {
        "type": "Point",
        "coordinates": [
          -43.56656998461584,
          41.200604038942046
        ]
      }
    },
    {
      "type": "Feature",
      "properties": {
        "norad_id": 41038,
        "name": "YAOGAN-29",
        "group": "resource",
        "lat": 64.61133412864538,
        "lon": -147.14933430767076,
        "alt_km": 613.8979566548296,
        "timestamp": "2025-12-18T08:58:43.048910+00:00",
        "meta_object_name": "YAOGAN-29",
        "meta_object_id": "2015-069A",
        "meta_epoch": "2025-12-18T00:22:06.689280",
        "meta_mean_motion": 14.82886752,
        "meta_eccentricity": 3.121e-05,
        "meta_inclination": 98.0218,
        "meta_ra_of_asc_node": 15.2044,
        "meta_arg_of_pericenter": 198.0968,
        "meta_mean_anomaly": 162.0234,
        "meta_ephemeris_type": 0,
        "meta_classification_type": "U",
        "meta_norad_cat_id": 41038,
        "meta_element_set_no": 999,
        "meta_rev_at_epoch": 54377,
        "meta_bstar": 1.595552e-05,
        "meta_mean_motion_dot": 7.5e-07,
        "meta_mean_motion_ddot": 0,
        "tle_line1": "1 41038U 15069A   25352.01535520  .00000075  00000+0  15956-4 0  9996",
        "tle_line2": "2 41038  98.0218  15.2044 0000312 198.0968 162.0234 14.82886752543774"
      },
      "geometry": {
        "type": "Point",
        "coordinates": [
          -147.14933430767076,
          64.61133412864538
        ]
      }
    },
    {
      "type": "Feature",
      "properties": {
        "norad_id": 41167,
        "name": "KENT RIDGE 1",
        "group": "resource",
        "lat": 4.867714365421093,
        "lon": -29.237125445763954,
        "alt_km": 493.5737812684274,
        "timestamp": "2025-12-18T08:58:43.048921+00:00",
        "meta_object_name": "KENT RIDGE 1",
        "meta_object_id": "2015-077B",
        "meta_epoch": "2025-12-17T16:32:38.321952",
        "meta_mean_motion": 15.21675288,
        "meta_eccentricity": 0.00085051,
        "meta_inclination": 14.978,
        "meta_ra_of_asc_node": 174.4127,
        "meta_arg_of_pericenter": 200.8966,
        "meta_mean_anomaly": 159.1009,
        "meta_ephemeris_type": 0,
        "meta_classification_type": "U",
        "meta_norad_cat_id": 41167,
        "meta_element_set_no": 999,
        "meta_rev_at_epoch": 55339,
        "meta_bstar": 0.00014150911,
        "meta_mean_motion_dot": 4.052e-05,
        "meta_mean_motion_ddot": 0,
        "tle_line1": "1 41167U 15077B   25351.68933243  .00004052  00000+0  14151-3 0  9998",
        "tle_line2": "2 41167  14.9780 174.4127 0008505 200.8966 159.1009 15.21675288553390"
      },
      "geometry": {
        "type": "Point",
        "coordinates": [
          -29.237125445763954,
          4.867714365421093
        ]
      }
    },
    {
      "type": "Feature",
      "properties": {
        "norad_id": 41194,
        "name": "GAOFEN-4",
        "group": "resource",
        "lat": -0.17524237434303128,
        "lon": -32.373190309231,
        "alt_km": 35796.312167939,
        "timestamp": "2025-12-18T08:58:43.048933+00:00",
        "meta_object_name": "GAOFEN-4",
        "meta_object_id": "2015-083A",
        "meta_epoch": "2025-12-17T20:40:38.319168",
        "meta_mean_motion": 1.00274046,
        "meta_eccentricity": 0.00029204,
        "meta_inclination": 0.1833,
        "meta_ra_of_asc_node": 81.7246,
        "meta_arg_of_pericenter": 94.2919,
        "meta_mean_anomaly": 326.577,
        "meta_ephemeris_type": 0,
        "meta_classification_type": "U",
        "meta_norad_cat_id": 41194,
        "meta_element_set_no": 999,
        "meta_rev_at_epoch": 3671,
        "meta_bstar": 0,
        "meta_mean_motion_dot": -3.1e-06,
        "meta_mean_motion_ddot": 0,
        "tle_line1": "1 41194U 15083A   25351.86155462 -.00000310  00000+0  00000+0 0  9992",
        "tle_line2": "2 41194   0.1833  81.7246 0002920  94.2919 326.5770  1.00274046 36712"
      },
      "geometry": {
        "type": "Point",
        "coordinates": [
          -32.373190309231,
          -0.17524237434303128
        ]
      }
    },
    {
      "type": "Feature",
      "properties": {
        "norad_id": 41240,
        "name": "JASON-3",
        "group": "resource",
        "lat": 30.037633407292958,
        "lon": -48.91992130899318,
        "alt_km": 1311.516236093683,
        "timestamp": "2025-12-18T08:58:43.048944+00:00",
        "meta_object_name": "JASON-3",
        "meta_object_id": "2016-002A",
        "meta_epoch": "2025-12-17T21:02:03.430176",
        "meta_mean_motion": 12.87626784,
        "meta_eccentricity": 0.0007187,
        "meta_inclination": 66.0396,
        "meta_ra_of_asc_node": 147.0247,
        "meta_arg_of_pericenter": 271.1239,
        "meta_mean_anomaly": 88.8956,
        "meta_ephemeris_type": 0,
        "meta_classification_type": "U",
        "meta_norad_cat_id": 41240,
        "meta_element_set_no": 999,
        "meta_rev_at_epoch": 46390,
        "meta_bstar": 5.531279e-05,
        "meta_mean_motion_dot": -4.8e-07,
        "meta_mean_motion_ddot": 0,
        "tle_line1": "1 41240U 16002A   25351.87642859 -.00000048  00000+0  55313-4 0  9998",
        "tle_line2": "2 41240  66.0396 147.0247 0007187 271.1239  88.8956 12.87626784463903"
      },
      "geometry": {
        "type": "Point",
        "coordinates": [
          -48.91992130899318,
          30.037633407292958
        ]
      }
    },
    {
      "type": "Feature",
      "properties": {
        "norad_id": 41335,
        "name": "SENTINEL-3A",
        "group": "resource",
        "lat": 62.47649872180752,
        "lon": -105.7459252998488,
        "alt_km": 795.9616668436583,
        "timestamp": "2025-12-18T08:58:43.048955+00:00",
        "meta_object_name": "SENTINEL-3A",
        "meta_object_id": "2016-011A",
        "meta_epoch": "2025-12-17T20:39:15.050304",
        "meta_mean_motion": 14.26732667,
        "meta_eccentricity": 9.155e-05,
        "meta_inclination": 98.6309,
        "meta_ra_of_asc_node": 56.8014,
        "meta_arg_of_pericenter": 92.4796,
        "meta_mean_anomaly": 267.6489,
        "meta_ephemeris_type": 0,
        "meta_classification_type": "U",
        "meta_norad_cat_id": 41335,
        "meta_element_set_no": 999,
        "meta_rev_at_epoch": 51220,
        "meta_bstar": 6.4791183e-05,
        "meta_mean_motion_dot": 1.13e-06,
        "meta_mean_motion_ddot": 0,
        "tle_line1": "1 41335U 16011A   25351.86059086  .00000113  00000+0  64791-4 0  9998",
        "tle_line2": "2 41335  98.6309  56.8014 0000915  92.4796 267.6489 14.26732667512205"
      },
      "geometry": {
        "type": "Point",
        "coordinates": [
          -105.7459252998488,
          62.47649872180752
        ]
      }
    },
    {
      "type": "Feature",
      "properties": {
        "norad_id": 41556,
        "name": "ZIYUAN 3-02 (ZY 3-02)",
        "group": "resource",
        "lat": -15.722308055114166,
        "lon": 68.54641678836528,
        "alt_km": 510.9119613406492,
        "timestamp": "2025-12-18T08:58:43.048965+00:00",
        "meta_object_name": "ZIYUAN 3-02 (ZY 3-02)",
        "meta_object_id": "2016-033A",
        "meta_epoch": "2025-12-17T23:34:32.036736",
        "meta_mean_motion": 15.21129815,
        "meta_eccentricity": 0.00108688,
        "meta_inclination": 97.4045,
        "meta_ra_of_asc_node": 66.0632,
        "meta_arg_of_pericenter": 226.7245,
        "meta_mean_anomaly": 133.3085,
        "meta_ephemeris_type": 0,
        "meta_classification_type": "U",
        "meta_norad_cat_id": 41556,
        "meta_element_set_no": 999,
        "meta_rev_at_epoch": 53043,
        "meta_bstar": 0.00026348933,
        "meta_mean_motion_dot": 5.805e-05,
        "meta_mean_motion_ddot": 0,
        "tle_line1": "1 41556U 16033A   25351.98231524  .00005805  00000+0  26349-3 0  9998",
        "tle_line2": "2 41556  97.4045  66.0632 0010868 226.7245 133.3085 15.21129815530439"
      },
      "geometry": {
        "type": "Point",
        "coordinates": [
          68.54641678836528,
          -15.722308055114166
        ]
      }
    }
  ]
}